IRIDIUM 152             
1 43479U 18047D   26062.68160028  .00000227  00000+0  73894-4 0  9999
2 43479  86.3986 132.4536 0002277  92.6231 267.5226 14.34218530407365
IRIDIUM 147             
1 43480U 18047E   26062.68794105  .00000216  00000+0  69939-4 0  9993
2 43480  86.3987 132.4542 0002215  98.9069 261.2378 14.34219265407360
IRIDIUM 110             
1 43481U 18047F   26062.69428641  .00000084  00000+0  22822-4 0  9997
2 43481  86.3986 132.5402 0002571  89.9072 270.2418 14.34217983407354
IRIDIUM 162             
1 43482U 18047G   26062.71048799  .00000412  00000+0  11642-3 0  9995
2 43482  86.4509 132.4733 0002123  91.9264 268.2180 14.43282036409910
IRIDIUM 160             
1 43569U 18061A   26062.64012088  .00000148  00000+0  45857-4 0  9993
2 43569  86.3923 100.9481 0002385  92.6570 267.4898 14.34218659398243
IRIDIUM 166             
1 43570U 18061B   26062.59572258  .00000160  00000+0  49951-4 0  9992
2 43570  86.3920 100.9184 0002182  96.3522 263.7922 14.34218403398261
IRIDIUM 158             
1 43571U 18061C   26062.56400890  .00000008  00000+0 -40910-5 0  9991
2 43571  86.3928 100.9414 0002012  90.0810 270.0617 14.34216597398229
IRIDIUM 165             
1 43572U 18061D   26062.65914854  .00000123  00000+0  36941-4 0  9997
2 43572  86.3921 100.9459 0002181  96.6731 263.4713 14.34218152398269
IRIDIUM 155             
1 43573U 18061E   26062.62109293 -.00000020  00000+0 -14129-4 0  9990
2 43573  86.3921 100.8360 0001954  93.1607 266.9812 14.34217596398226
IRIDIUM 154             
1 43574U 18061F   26062.60207792  .00000317  00000+0  10598-3 0  9994
2 43574  86.3925 100.9729 0002197  98.9297 261.2148 14.34221652398272
IRIDIUM 163             
1 43575U 18061G   26062.65280673  .00000045  00000+0  90770-5 0  9999
2 43575  86.3922 100.8705 0002254  91.4405 268.7049 14.34217721398258
IRIDIUM 156             
1 43576U 18061H   26062.62743549  .00000071  00000+0  18156-4 0  9999
2 43576  86.3927 100.8881 0002017  94.9229 265.2197 14.34218019398244
IRIDIUM 164             
1 43577U 18061J   26062.60840770  .00000118  00000+0  35054-4 0  9990
2 43577  86.3926 100.9346 0002307  99.4051 260.7406 14.34218443398284
IRIDIUM 159             
1 43578U 18061K   26062.64646421 -.00000053  00000+0 -25938-4 0  9992
2 43578  86.3922 100.8575 0002267  92.5142 267.6314 14.34217371398254
IRIDIUM 180             
1 43922U 19002A   26062.43665418  .00000064  00000+0  15898-4 0  9999
2 43922  86.3963  37.7791 0002284  85.9815 274.1642 14.34217937373834
IRIDIUM 176             
1 43923U 19002B   26062.40123185  .00001368  00000+0  21302-3 0  9991
2 43923  86.6095  37.7509 0003151  82.1159 278.0416 14.72243380383684
IRIDIUM 168             
1 43924U 19002C   26062.56984487  .00000391  00000+0  13249-3 0  9995
2 43924  86.3963  37.7978 0002213  86.7310 273.4139 14.34220645373837
