[{"OBJECT_NAME":"IRIDIUM 152","OBJECT_ID":"2018-047D","EPOCH":"2026-03-03T16:21:30.264192","MEAN_MOTION":14.3421853,"ECCENTRICITY":0.0002277,"INCLINATION":86.3986,"RA_OF_ASC_NODE":132.4536,"ARG_OF_PERICENTER":92.6231,"MEAN_ANOMALY":267.5226,"EPHEMERIS_TYPE":0,"CLASSIFICATION_TYPE":"U","NORAD_CAT_ID":43479,"ELEMENT_SET_NO":999,"REV_AT_EPOCH":40736,"BSTAR":7.3894e-5,"MEAN_MOTION_DOT":2.27e-6,"MEAN_MOTION_DDOT":0},{"OBJECT_NAME":"IRIDIUM 147","OBJECT_ID":"2018-047E","EPOCH":"2026-03-03T16:30:38.106720","MEAN_MOTION":14.34219265,"ECCENTRICITY":0.0002215,"INCLINATION":86.3987,"RA_OF_ASC_NODE":132.4542,"ARG_OF_PERICENTER":98.9069,"MEAN_ANOMALY":261.2378,"EPHEMERIS_TYPE":0,"CLASSIFICATION_TYPE":"U","NORAD_CAT_ID":43480,"ELEMENT_SET_NO":999,"REV_AT_EPOCH":40736,"BSTAR":6.9939e-5,"MEAN_MOTION_DOT":2.16e-6,"MEAN_MOTION_DDOT":0},{"OBJECT_NAME":"IRIDIUM 110","OBJECT_ID":"2018-047F","EPOCH":"2026-03-03T16:39:46.345824","MEAN_MOTION":14.34217983,"ECCENTRICITY":0.0002571,"INCLINATION":86.3986,"RA_OF_ASC_NODE":132.5402,"ARG_OF_PERICENTER":89.9072,"MEAN_ANOMALY":270.2418,"EPHEMERIS_TYPE":0,"CLASSIFICATION_TYPE":"U","NORAD_CAT_ID":43481,"ELEMENT_SET_NO":999,"REV_AT_EPOCH":40735,"BSTAR":2.2822e-5,"MEAN_MOTION_DOT":8.4e-7,"MEAN_MOTION_DDOT":0},{"OBJECT_NAME":"IRIDIUM 162","OBJECT_ID":"2018-047G","EPOCH":"2026-03-03T17:03:06.162336","MEAN_MOTION":14.43282036,"ECCENTRICITY":0.0002123,"INCLINATION":86.4509,"RA_OF_ASC_NODE":132.4733,"ARG_OF_PERICENTER":91.9264,"MEAN_ANOMALY":268.218,"EPHEMERIS_TYPE":0,"CLASSIFICATION_TYPE":"U","NORAD_CAT_ID":43482,"ELEMENT_SET_NO":999,"REV_AT_EPOCH":40991,"BSTAR":0.00011642,"MEAN_MOTION_DOT":4.12e-6,"MEAN_MOTION_DDOT":0},{"OBJECT_NAME":"IRIDIUM 160","OBJECT_ID":"2018-061A","EPOCH":"2026-03-03T15:21:46.444032","MEAN_MOTION":14.34218659,"ECCENTRICITY":0.0002385,"INCLINATION":86.3923,"RA_OF_ASC_NODE":100.9481,"ARG_OF_PERICENTER":92.657,"MEAN_ANOMALY":267.4898,"EPHEMERIS_TYPE":0,"CLASSIFICATION_TYPE":"U","NORAD_CAT_ID":43569,"ELEMENT_SET_NO":999,"REV_AT_EPOCH":39824,"BSTAR":4.5857e-5,"MEAN_MOTION_DOT":1.48e-6,"MEAN_MOTION_DDOT":0},{"OBJECT_NAME":"IRIDIUM 166","OBJECT_ID":"2018-061B","EPOCH":"2026-03-03T14:17:50.430912","MEAN_MOTION":14.34218403,"ECCENTRICITY":0.0002182,"INCLINATION":86.392,"RA_OF_ASC_NODE":100.9184,"ARG_OF_PERICENTER":96.3522,"MEAN_ANOMALY":263.7922,"EPHEMERIS_TYPE":0,"CLASSIFICATION_TYPE":"U","NORAD_CAT_ID":43570,"ELEMENT_SET_NO":999,"REV_AT_EPOCH":39826,"BSTAR":4.9951e-5,"MEAN_MOTION_DOT":1.6e-6,"MEAN_MOTION_DDOT":0},{"OBJECT_NAME":"IRIDIUM 158","OBJECT_ID":"2018-061C","EPOCH":"2026-03-03T13:32:10.368960","MEAN_MOTION":14.34216597,"ECCENTRICITY":0.0002012,"INCLINATION":86.3928,"RA_OF_ASC_NODE":100.9414,"ARG_OF_PERICENTER":90.081,"MEAN_ANOMALY":270.0617,"EPHEMERIS_TYPE":0,"CLASSIFICATION_TYPE":"U","NORAD_CAT_ID":43571,"ELEMENT_SET_NO":999,"REV_AT_EPOCH":39822,"BSTAR":-4.091e-6,"MEAN_MOTION_DOT":8.0e-8,"MEAN_MOTION_DDOT":0},{"OBJECT_NAME":"IRIDIUM 165","OBJECT_ID":"2018-061D","EPOCH":"2026-03-03T15:49:10.433856","MEAN_MOTION":14.34218152,"ECCENTRICITY":0.0002181,"INCLINATION":86.3921,"RA_OF_ASC_NODE":100.9459,"ARG_OF_PERICENTER":96.6731,"MEAN_ANOMALY":263.4713,"EPHEMERIS_TYPE":0,"CLASSIFICATION_TYPE":"U","NORAD_CAT_ID":43572,"ELEMENT_SET_NO":999,"REV_AT_EPOCH":39826,"BSTAR":3.6941e-5,"MEAN_MOTION_DOT":1.23e-6,"MEAN_MOTION_DDOT":0},{"OBJECT_NAME":"IRIDIUM 155","OBJECT_ID":"2018-061E","EPOCH":"2026-03-03T14:54:22.429152","MEAN_MOTION":14.34217596,"ECCENTRICITY":0.0001954,"INCLINATION":86.3921,"RA_OF_ASC_NODE":100.836,"ARG_OF_PERICENTER":93.1607,"MEAN_ANOMALY":266.9812,"EPHEMERIS_TYPE":0,"CLASSIFICATION_TYPE":"U","NORAD_CAT_ID":43573,"ELEMENT_SET_NO":999,"REV_AT_EPOCH":39822,"BSTAR":-1.4129e-5,"MEAN_MOTION_DOT":-2.0e-7,"MEAN_MOTION_DDOT":0},{"OBJECT_NAME":"IRIDIUM 154","OBJECT_ID":"2018-061F","EPOCH":"2026-03-03T14:26:59.532288","MEAN_MOTION":14.34221652,"ECCENTRICITY":0.0002197,"INCLINATION":86.3925,"RA_OF_ASC_NODE":100.9729,"ARG_OF_PERICENTER":98.9297,"MEAN_ANOMALY":261.2148,"EPHEMERIS_TYPE":0,"CLASSIFICATION_TYPE":"U","NORAD_CAT_ID":43574,"ELEMENT_SET_NO":999,"REV_AT_EPOCH":39827,"BSTAR":0.00010598,"MEAN_MOTION_DOT":3.17e-6,"MEAN_MOTION_DDOT":0},{"OBJECT_NAME":"IRIDIUM 163","OBJECT_ID":"2018-061G","EPOCH":"2026-03-03T15:40:02.501472","MEAN_MOTION":14.34217721,"ECCENTRICITY":0.0002254,"INCLINATION":86.3922,"RA_OF_ASC_NODE":100.8705,"ARG_OF_PERICENTER":91.4405,"MEAN_ANOMALY":268.7049,"EPHEMERIS_TYPE":0,"CLASSIFICATION_TYPE":"U","NORAD_CAT_ID":43575,"ELEMENT_SET_NO":999,"REV_AT_EPOCH":39825,"BSTAR":9.077e-6,"MEAN_MOTION_DOT":4.5e-7,"MEAN_MOTION_DDOT":0},{"OBJECT_NAME":"IRIDIUM 156","OBJECT_ID":"2018-061H","EPOCH":"2026-03-03T15:03:30.426336","MEAN_MOTION":14.34218019,"ECCENTRICITY":0.0002017,"INCLINATION":86.3927,"RA_OF_ASC_NODE":100.8881,"ARG_OF_PERICENTER":94.9229,"MEAN_ANOMALY":265.2197,"EPHEMERIS_TYPE":0,"CLASSIFICATION_TYPE":"U","NORAD_CAT_ID":43576,"ELEMENT_SET_NO":999,"REV_AT_EPOCH":39824,"BSTAR":1.8156e-5,"MEAN_MOTION_DOT":7.1e-7,"MEAN_MOTION_DDOT":0},{"OBJECT_NAME":"IRIDIUM 164","OBJECT_ID":"2018-061J","EPOCH":"2026-03-03T14:36:06.425280","MEAN_MOTION":14.34218443,"ECCENTRICITY":0.0002307,"INCLINATION":86.3926,"RA_OF_ASC_NODE":100.9346,"ARG_OF_PERICENTER":99.4051,"MEAN_ANOMALY":260.7406,"EPHEMERIS_TYPE":0,"CLASSIFICATION_TYPE":"U","NORAD_CAT_ID":43577,"ELEMENT_SET_NO":999,"REV_AT_EPOCH":39828,"BSTAR":3.5054e-5,"MEAN_MOTION_DOT":1.18e-6,"MEAN_MOTION_DDOT":0},{"OBJECT_NAME":"IRIDIUM 159","OBJECT_ID":"2018-061K","EPOCH":"2026-03-03T15:30:54.507744","MEAN_MOTION":14.34217371,"ECCENTRICITY":0.0002267,"INCLINATION":86.3922,"RA_OF_ASC_NODE":100.8575,"ARG_OF_PERICENTER":92.5142,"MEAN_ANOMALY":267.6314,"EPHEMERIS_TYPE":0,"CLASSIFICATION_TYPE":"U","NORAD_CAT_ID":43578,"ELEMENT_SET_NO":999,"REV_AT_EPOCH":39825,"BSTAR":-2.5938e-5,"MEAN_MOTION_DOT":-5.3e-7,"MEAN_MOTION_DDOT":0},{"OBJECT_NAME":"IRIDIUM 180","OBJECT_ID":"2019-002A","EPOCH":"2026-03-03T10:28:46.921152","MEAN_MOTION":14.34217937,"ECCENTRICITY":0.00022846,"INCLINATION":86.3963,"RA_OF_ASC_NODE":37.7791,"ARG_OF_PERICENTER":85.9815,"MEAN_ANOMALY":274.1642,"EPHEMERIS_TYPE":0,"CLASSIFICATION_TYPE":"U","NORAD_CAT_ID":43922,"ELEMENT_SET_NO":999,"REV_AT_EPOCH":37383,"BSTAR":1.5898487e-5,"MEAN_MOTION_DOT":6.4e-7,"MEAN_MOTION_DDOT":0},{"OBJECT_NAME":"IRIDIUM 176","OBJECT_ID":"2019-002B","EPOCH":"2026-03-03T09:37:46.431840","MEAN_MOTION":14.7224338,"ECCENTRICITY":0.00031516,"INCLINATION":86.6095,"RA_OF_ASC_NODE":37.7509,"ARG_OF_PERICENTER":82.1159,"MEAN_ANOMALY":278.0416,"EPHEMERIS_TYPE":0,"CLASSIFICATION_TYPE":"U","NORAD_CAT_ID":43923,"ELEMENT_SET_NO":999,"REV_AT_EPOCH":38368,"BSTAR":0.0002130169,"MEAN_MOTION_DOT":1.368e-5,"MEAN_MOTION_DDOT":0},{"OBJECT_NAME":"IRIDIUM 168","OBJECT_ID":"2019-002C","EPOCH":"2026-03-03T13:40:34.596768","MEAN_MOTION":14.34220645,"ECCENTRICITY":0.0002213,"INCLINATION":86.3963,"RA_OF_ASC_NODE":37.7978,"ARG_OF_PERICENTER":86.731,"MEAN_ANOMALY":273.4139,"EPHEMERIS_TYPE":0,"CLASSIFICATION_TYPE":"U","NORAD_CAT_ID":43924,"ELEMENT_SET_NO":999,"REV_AT_EPOCH":37383,"BSTAR":0.00013249,"MEAN_MOTION_DOT":3.91e-6,"MEAN_MOTION_DDOT":0}]
